#dP2021  3 17  0  0  0.00000000      96 __u+U ITR00 EXT  IAC
## 2149 259200.00000000   900.00000000 59290 0.0000000000000
+  116   C06C07C08C09C10C11C12C13C14C16C19C20C21C22C23C24C25
+        C26C27C28C29C30C32C33C34C35C36C37C38C39C40C41C42C43
+        C44C45C46E01E02E03E04E05E07E08E09E11E12E13E14E15E18
+        E19E21E24E25E26E27E30E31E33G01G02G03G04G05G06G07G08
+        G09G10G11G12G13G14G15G16G17G18G19G20G21G22G23G24G25
+        G26G27G28G29G30G31G32J01J02J03R01R02R03R04R05R07R08
+        R09R11R12R13R14R15R16R17R18R19R20R21R22R24  0  0  0
++        11  9 11 10 10  9  9  9 10 14  8  8  8 10 10  9 10
++         8  9 11  8  8  8 10 10  8  9 10 10 11  9 11  9 10
++         9  9  9  9  8  9  8  8  8  8  9  9  9  8  9 10  9
++         9  7 10  9  9  8  8  8  9  8  8  7  8  8  8  9  8
++         8  7  9  7  9  8  8  9  7  9  8  7  9  8  7  7  7
++         8  8  8  8  8  8  8 10 10 12  9  7  8  8  9  8  8
++         9  8  9  9  8  8  9  9 10  9  9  8  9  9  0  0  0
%c M  cc GPS ccc cccc cccc cccc cccc ccccc ccccc ccccc ccccc
%c cc cc ccc ccc cccc cccc cccc cccc ccccc ccccc ccccc ccccc
%f  0.0000000  0.000000000  0.00000000000  0.000000000000000
%f  0.0000000  0.000000000  0.00000000000  0.000000000000000
%i    0    0    0    0      0      0      0      0         0
%i    0    0    0    0      0      0      0      0         0
/* IAC                                ULTRA-RAPID PREDICTION
/* S/V CLOCKS ARE ALIGNED TO GNSS TIME                      
/* G:C1WC2W R:C1PC2P E:C1XC5X C:C2IC6I J:C1CC2S             
/* PCV:IGS14_2134 OL/AL:FES2004  NONE     YN ORB:CoN CLK:CoN
*  2021 03 17 23  0  0.00000000
PC06 -13337.689178  21390.562132  34204.988446    187.042661
PC07 -23986.522163  33961.906710  -8222.317415    -27.609116
PC08  -7402.265050  33510.716598 -24125.135065   -899.648062
PC09   3039.842654  26605.843792  32942.316195    661.303159
PC10 -11871.083084  35349.093881 -19884.706698    -70.176443
PC11  24967.879542   4667.339767  11581.209817   -862.894467
PC12  22159.409201  15855.157602  -5960.028441    872.625852
PC13   1955.262517  40397.445109 -11337.533170    184.374102
PC14  24344.375276  -5920.115913  12261.078524    236.395161
PC16  -8692.958808  22557.939524  34646.244989   -739.313141
PC19 -24272.088211  13368.319702  -3349.800085    765.353508
PC20 -21233.623634   -910.443154 -18079.225734   -931.829828
PC21   5257.458550  15389.195097  22701.612296   -890.422256
PC22 -13384.279917  20288.347988  13744.084816   -921.125679
PC23   5345.833457 -25762.687793  -9307.502251   -878.317563
PC24  15260.938364  11206.169795 -20504.669017   -785.778542
PC25  14223.672818 -11454.693496 -21113.822651   -946.884491
PC26   8074.592475  25277.560095  -8588.785606    933.990440
PC27 -14955.819852 -18818.842516  14139.013001    500.331149
PC28   4363.379124 -15478.226515  22810.022951    -97.211424
PC29 -20925.889566   3887.442638 -18050.173896    366.385062
PC30 -25746.614249 -10480.083148  -2289.105727    453.174429
PC32  -5388.211626 -15333.087019 -22664.283109   -914.941166
PC33  24221.869703 -13399.298545   3476.583453   -946.382085
PC34  25857.947542  10113.409671   2946.864367   -716.681080
PC35  -4151.274101  15560.053337 -22796.154610   -369.933842
PC36 -14596.968766  10721.115251  21248.267747   -740.654297
PC37  -6974.437224 -25881.917763   7810.082309   -878.119251
PC38  -6312.648235  36033.188198 -20845.650668    136.472748
PC39  -6992.648015  23078.104112  34602.804342     29.479004
PC40 -18280.920288  31921.157431 -20742.753699    141.975978
PC41  13580.766496 -20304.130534 -13446.537883   -933.071068
PC42  20837.799777   1606.175223  18532.187044   -938.692484
PC43  21319.468936  -3467.203988  17680.250393   -644.124537
PC44  15393.658882  18433.070282 -14251.205082     91.088570
PC45  -5189.719718  25790.908884   9272.901616    389.464105
PC46 -15360.433128 -10271.957897  20922.527972    358.271647
PE01  17897.839044  -1314.998874 -23545.413597  -1067.699969
PE02 -17916.265682   1418.419413  23509.246041    205.737484
PE03 -29118.847426   -524.213860  -5325.535814   -410.019910
PE04  24025.408429 -11732.289196 -12694.869889   -731.060031
PE05 -17185.015838 -12667.015258 -20499.535933   -296.216350
PE07  -4648.089470  17302.880206  23571.026019   -514.057777
PE08 -23762.319872  11942.859450  13011.140741   6031.628243
PE09   4370.938645 -17181.308844 -23696.096342   5731.387570
PE11  -3961.409891 -23859.730230  17046.945988   6195.783219
PE12  12888.425356  -9835.665493  24770.568859   5305.193762
PE13   3747.056529  23671.379079 -17371.305747    413.696306
PE14 -26076.240059  -8054.512976   4788.824737  -1365.346242
PE15 -12741.941669   9887.636260 -24809.406224    824.138673
PE18  18164.001900  16605.287331 -16103.713580  -1493.081306
PE19  28576.108321   2043.628273   7459.368358    229.398878
PE21   8127.565578  18202.495734 -21884.536504   -654.184170
PE24   7352.719203 -27874.892343   6762.516430   -798.228403
PE25  -7985.504545 -18373.616114  21793.319148   -528.709843
PE26  18255.716976  23281.628589   1016.049287   2030.154325
PE27  -6698.300124  27844.656181  -7457.910831      8.268037
PE30 -17858.919156  20337.647993  11949.241692   3098.728368
PE31  17490.386965 -21066.384960 -11253.554314   -479.267584
PE33  21714.550461   9699.204678  17641.807182   -466.629674
PG01  16681.865074   4695.365733  19984.195888    738.831851
PG02 -13791.954558 -22547.660122  -1711.262464   -587.109122
PG03  19165.942098  -6936.228400  16891.113150   -110.944025
PG04  26399.417584   1319.459653  -2895.596961   -186.784342
PG05 -11310.971344 -10686.760598 -21663.336848    -36.509592
PG06  -4566.763595 -24522.818193   9103.623939      1.401037
PG07  11429.200220 -10930.562900 -20929.612755     93.237892
PG08  25628.572111   5523.252639  -5170.742784    -14.116430
PG09  21949.438725  -7560.561448 -12981.203435   -331.901408
PG10 -10374.470422  23257.016217   7156.477890    -83.133374
PG11  22631.923397   5979.795198  11763.263483      3.992079
PG12 -18354.735986   2266.338716  18753.564729    -15.366120
PG13 -19548.558239 -13222.734445 -12443.504835    109.031904
PG14  12395.410422 -22711.870980   5953.534375     99.806885
PG15 -26101.927578  -3322.337170  -5173.850765   -162.438998
PG16   7890.662353  13435.502665 -21688.242408   -295.589705
PG17   6288.111706 -13957.307329  22132.885911    411.376698
PG18  -8955.257473  14563.669095 -20316.036422    350.706671
PG19  -3146.332041 -15166.201798  21307.523399    -25.006559
PG20 -16186.661730  19446.351223  -7535.041395    524.099360
PG21  18961.615901  11285.723837  15830.822524    103.938137
PG22  16456.579000   2356.384176  20881.154798   -658.263207
PG23 -16763.499448  20219.801630  -3815.059393    117.238087
PG24 -18773.293318  -9435.656633  16228.330115      0.918177
PG25 -19056.481498  15510.622535   9459.522409    100.841070
PG26    666.318743  20835.788408 -16360.231899     59.501088
PG27  17943.321237  12293.532470 -15659.482037    -95.913556
PG28  11028.536234 -22603.764573   9384.617153    600.625054
PG29 -22096.531235   5553.729625 -13728.935822   -313.694675
PG30   2649.197429 -21676.855289 -14910.891406   -399.910199
PG31   5961.664554  24867.962087   6130.896941   -106.206402
PG32  -3735.931544  14997.617532  21691.201354     21.332744
PJ01 -30455.732624  27836.339462  13594.061759   -355.959496
PJ02 -30425.522471  26004.876425  18090.399102      3.554789
PJ03 -27373.343884  16035.078206 -23182.715429     -1.893343
PR01  22094.105885  -3319.859799  12299.982924     76.532524
PR02  20451.722310 -12740.479246  -8416.558734    471.137430
PR03   5726.753919 -13238.209791 -21006.265029     32.578830
PR04 -11967.221270  -6018.781723 -21676.113381     78.343071
PR05 -22964.444296   4364.025571 -10170.293511     68.328509
PR07  -4946.480183  13079.847861  21362.563139    -42.553657
PR08  12073.820781   6121.831656  21681.062891    -57.998381
PR09  -9333.091620  18863.490692  14475.211568    -16.619722
PR11   6361.319543  17486.971778 -17445.062942      2.184405
PR12  11126.907976  -1058.023489 -22909.911236    213.398565
PR13   9283.519181 -18421.410389 -15028.620071    -52.118499
PR14   1953.394249 -25322.955421   2317.146619     62.117941
PR15  -6370.040462 -17244.489902  17699.911962    104.860222
PR16 -11318.381549   2182.195767  22716.913993    -12.648375
PR17  -5953.148496 -15605.700700  19301.778787    408.833061
PR18 -18102.892078 -17094.876203   5414.684503     70.130312
PR19 -20562.886002 -10587.000609 -10752.189579   -136.116373
PR20 -10477.442710   4504.080162 -22800.323620    -45.465905
PR21   6956.500878  15959.308643 -18632.781502   -195.139556
PR22  18611.527237  16995.382295  -4280.361310   -103.135122
PR24  10161.639804  -5538.269825  22749.986580     35.385015
EOF
